STARLINK-37934          
1 69567U 26135X   26188.44312228  .00293381  00000+0  14681-2 0  9998
2 69567  97.2845 216.6838 0003261 125.2579 234.8995 15.81011723  3469
SHIJIAN-31 (SJ-31)      
1 69570U 26136A   26192.42493254 -.00000284  00000+0  00000+0 0  9991
2 69570  63.4858 353.5832 6940228 171.8290 212.2965  1.92226715   553
CZ-3B R/B               
1 69571U 26136B   26191.26266672  .00320601 -99206-6  46219-3 0  9992
2 69571  63.4296 351.4733 7271559 171.4867 216.5354  2.36167064   568
GUOWANG OBJECT A        
1 69572U 26137A   26190.36912648 -.00000110  00000+0  29403-4 0  9999
2 69572  49.9993 167.0911 0012557 299.3374  60.6270 13.89812603  3102
GUOWANG OBJECT B        
1 69573U 26137B   26190.65385973 -.00000214  00000+0 -55136-4 0  9995
2 69573  50.0016 165.9303 0011859 298.8434  61.1273 13.89803849  3155
GUOWANG OBJECT C        
1 69574U 26137C   26190.65276043 -.00000057  00000+0  72323-4 0  9994
2 69574  49.9962 165.9102 0011904 300.6112  59.3612 13.89815350  3152
GUOWANG OBJECT D        
1 69575U 26137D   26190.65162700 -.00000168  00000+0 -17667-4 0  9993
2 69575  49.9953 165.9027 0011086 299.2996  60.6794 13.89827781  3150
GUOWANG OBJECT E        
1 69576U 26137E   26190.65064700 -.00000214  00000+0 -55274-4 0  9993
2 69576  50.0036 165.9215 0011263 302.1342  57.8463 13.89825186  3159
GUOWANG OBJECT F        
1 69577U 26137F   26190.64981928 -.00000215  00000+0 -55984-4 0  9992
2 69577  50.0025 165.9144 0010849 302.1836  57.8010 13.89809494  3158
GUOWANG OBJECT G        
1 69578U 26137G   26192.30278168 -.00000142  00000+0  35461-5 0  9990
2 69578  49.9952 159.3085 0010806 307.5258  52.4657 13.89795025  3383
GUOWANG OBJECT H        
1 69579U 26137H   26191.00768142 -.00000175  00000+0 -23862-4 0  9991
2 69579  50.0012 164.4679 0010249 306.3680  53.6272 13.89776278  3203
GUOWANG OBJECT J        
1 69580U 26137J   26178.27848690  .00000022  00000+0  13174-3 0  9997
2 69580  49.9961 215.0979 0011832 257.3150 102.6427 13.91997107  1436
CENTISPACE-1 GROUP 05 O*
1 69582U 26138A   26192.36371635 -.00000120  00000+0  17252-4 0  9998
2 69582  55.1386 191.8994 0011139 335.9140  24.1312 14.15470714  3449
CENTISPACE-1 GROUP 05 O*
1 69583U 26138B   26192.50182971 -.00000209  00000+0 -28198-4 0  9998
2 69583  55.1381 191.3601 0010120 336.6120  23.4392 14.15650673  3466
CENTISPACE-1 GROUP 05 O*
1 69584U 26138C   26192.50036890 -.00000249  00000+0 -48375-4 0  9990
2 69584  55.1387 191.3611 0010046 338.2500  21.8047 14.15734437  3461
CENTISPACE-1 GROUP 05 O*
1 69585U 26138D   26191.43840464 -.00000365  00000+0 -10664-3 0  9990
2 69585  55.1385 195.2493 0009542 334.9114  25.1396 14.15920758  3315
CENTISPACE-1 GROUP 05 O*
1 69586U 26138E   26192.70800568 -.00000338  00000+0 -93172-4 0  9999
2 69586  55.1377 190.5552 0009369 338.3184  21.7392 14.15987201  3496
CENTISPACE-1 GROUP 05 O*
1 69588U 26138G   26192.42393278 -.00000390  00000+0 -11929-3 0  9992
2 69588  55.1382 191.5885 0008527 341.6633  18.4033 14.16074414  3450
SPACEMOBILE-008         
1 69589U 26139A   26192.32103221  .00000086  00000+0  21806-4 0  9996
2 69589  52.9941 152.9965 0004879  47.3692 312.7710 15.12799068  3636
SPACEMOBILE-009         
1 69590U 26139B   26192.52093152  .00000004  00000+0  17235-4 0  9992
2 69590  52.9933 152.1023 0005132  43.2568 316.8825 15.12692406  3669
SPACEMOBILE-010         
1 69591U 26139C   26191.92893653  .00000038  00000+0  19202-4 0  9993
2 69591  52.9937 154.8205 0004992  33.2635 326.8669 15.12522766  3581
KUIPER-00423            
1 69592U 26140A   26192.73989328 -.00020658  00000+0 -52656-3 0  9992
2 69592  51.8793 279.7863 0011787 258.6701 101.2962 15.38405477  5012
